SPACEMOBILE-006         
1 67232U 25309A   26082.20697885  .00003862  00000+0  20216-3 0  9994
2 67232  52.9986   5.3136 0009595 222.9497 137.0748 15.18120139 13535
